NORAD_CAT_ID,OBJECT_NAME,OBJECT_TYPE,EPOCH,MEAN_MOTION,ECCENTRICITY,INCLINATION,RA_OF_ASC_NODE,ARG_OF_PERICENTER,MEAN_ANOMALY,BSTAR,MEAN_MOTION_DOT,MEAN_MOTION_DDOT,TLE_LINE0,TLE_LINE1,TLE_LINE2,SEMIMAJOR_AXIS,PERIOD,APOGEE,PERIGEE,DECAYED
55961.0,STARLINK-5933,PAYLOAD,2023-10-10 12:23:02,14.99307902,0.0002539,69.9985,326.133,272.8038,87.2831,3.3794e-05,3.2e-06,0.0,0 STARLINK-5933,1 55961U 23037AZ  23283.51599713  .00000320  00000-0  33794-4 0  9994,2 55961  69.9985 326.1330 0002539 272.8038  87.2831 14.99307902 32481,6947.17,96.044,570.799,567.272,0.0
55961.0,STARLINK-5933,PAYLOAD,2023-10-11 02:47:41,14.99300686,0.0002401,69.9992,324.6165,274.5488,85.5397,-0.00010951,-1.433e-05,0.0,0 STARLINK-5933,1 55961U 23037AZ  23284.11645552 -.00001433  00000-0 -10951-3 0  9991,2 55961  69.9992 324.6165 0002401 274.5488  85.5397 14.99300686 32912,6947.193,96.045,570.726,567.39,0.0
55961.0,STARLINK-5933,PAYLOAD,2023-10-11 12:24:07,14.99299273,0.0002622,69.9982,323.6066,265.1728,94.9132,-0.00015071,-1.937e-05,0.0,0 STARLINK-5933,1 55961U 23037AZ  23284.51675763 -.00001937  00000-0 -15071-3 0  9999,2 55961  69.9982 323.6066 0002622 265.1728  94.9132 14.99299273 32637,6947.197,96.045,570.884,567.241,0.0
55961.0,STARLINK-5933,PAYLOAD,2023-10-12 04:24:50,14.99302235,0.0002796,69.9976,321.9208,269.4918,90.5921,-3.1539e-05,-4.8e-06,0.0,0 STARLINK-5933,1 55961U 23037AZ  23285.18391951 -.00000480  00000-0 -31539-4 0  9997,2 55961  69.9976 321.9208 0002796 269.4918  90.5921 14.99302235 33079,6947.188,96.045,570.995,567.111,0.0
55961.0,STARLINK-5933,PAYLOAD,2023-10-12 12:25:11,14.99307444,0.0002642,69.9976,321.0782,267.2732,92.8125,2.5797e-05,2.22e-06,0.0,0 STARLINK-5933,1 55961U 23037AZ  23285.51749785  .00000222  00000-0  25797-4 0  9997,2 55961  69.9976 321.0782 0002642 267.2732  92.8125 14.99307444 32782,6947.172,96.044,570.872,567.201,0.0
55961.0,STARLINK-5933,PAYLOAD,2023-10-12 20:25:33,14.99298746,0.0002541,69.9981,320.236,270.4651,89.6217,3.6672e-05,3.55e-06,0.0,0 STARLINK-5933,1 55961U 23037AZ  23285.85108718  .00000355  00000-0  36672-4 0  9990,2 55961  69.9981 320.2360 0002541 270.4651  89.6217 14.99298746 32831,6947.199,96.045,570.829,567.298,0.0
55961.0,STARLINK-5933,PAYLOAD,2023-10-13 04:25:55,14.99295883,0.0002477,69.9981,319.3937,261.9366,98.1512,0.00010335,1.171e-05,0.0,0 STARLINK-5933,1 55961U 23037AZ  23286.18467121  .00001171  00000-0  10335-3 0  9997,2 55961  69.9981 319.3937 0002477 261.9366  98.1512 14.99295883 33222,6947.208,96.045,570.793,567.352,0.0
55961.0,STARLINK-5933,PAYLOAD,2023-10-13 12:26:17,14.99298762,0.0002529,69.9986,318.5512,261.1504,98.9369,0.00012281,1.409e-05,0.0,0 STARLINK-5933,1 55961U 23037AZ  23286.51825315  .00001409  00000-0  12281-3 0  9993,2 55961  69.9986 318.5512 0002529 261.1504  98.9369 14.99298762 32935,6947.199,96.045,570.821,567.307,0.0
55961.0,STARLINK-5933,PAYLOAD,2023-10-14 04:26:59,14.99311595,0.0002671,69.9983,316.8663,271.042,89.0434,-3.5781e-05,-5.32e-06,0.0,0 STARLINK-5933,1 55961U 23037AZ  23287.18541578 -.00000532  00000-0 -35781-4 0  9992,2 55961  69.9983 316.8663 0002671 271.0420  89.0434 14.99311595 33378,6947.159,96.044,570.88,567.168,0.0
55961.0,STARLINK-5933,PAYLOAD,2023-10-14 10:51:21,14.9925564,0.0001936,69.9982,316.1916,258.0355,102.0588,-0.00050172,-6.22e-05,0.0,0 STARLINK-5933,1 55961U 23037AZ  23287.45233018 -.00006220  00000-0 -50172-3 0  9999,2 55961  69.9982 316.1916 0001936 258.0355 102.0588 14.99255640 33415,6947.332,96.048,570.542,567.852,0.0
55961.0,STARLINK-5933,PAYLOAD,2023-10-14 12:27:28,14.99215256,0.0002959,69.9981,316.0242,276.9168,83.1655,-0.00097663,-0.00011997,0.0,0 STARLINK-5933,1 55961U 23037AZ  23287.51908394 -.00011997  00000-0 -97663-3 0  9995,2 55961  69.9981 316.0242 0002959 276.9168  83.1655 14.99215256 33088,6947.457,96.05,571.377,567.266,0.0
55961.0,STARLINK-5933,PAYLOAD,2023-10-14 18:51:59,14.99064968,0.0003143,69.9983,315.3508,279.5953,80.4851,-0.0024721,-0.0003003,0.0,0 STARLINK-5933,1 55961U 23037AZ  23287.78610976 -.00030030  00000-0 -24721-2 0  9993,2 55961  69.9983 315.3508 0003143 279.5953  80.4851 14.99064968 33466,6947.921,96.06,571.97,567.602,0.0
55961.0,STARLINK-5933,PAYLOAD,2023-10-15 02:52:50,14.98767559,0.0002978,69.9984,314.5096,269.7824,90.2994,-0.0053723,-0.00064335,0.0,0 STARLINK-5933,1 55961U 23037AZ  23288.12003083 -.00064335  00000-0 -53723-2 0  9996,2 55961  69.9984 314.5096 0002978 269.7824  90.2994 14.98767559 33511,6948.84,96.079,572.774,568.636,0.0
55961.0,STARLINK-5933,PAYLOAD,2023-10-15 10:53:23,14.98732613,0.0003013,69.9984,313.6678,267.5456,92.5358,-0.0053009,-0.00063432,0.0,0 STARLINK-5933,1 55961U 23037AZ  23288.45374436 -.00063432  00000-0 -53009-2 0  9999,2 55961  69.9984 313.6678 0003013 267.5456  92.5358 14.98732613 33225,6948.948,96.081,572.907,568.719,0.0
55961.0,STARLINK-5933,PAYLOAD,2023-10-15 17:17:50,14.98708621,0.0003042,69.9983,312.9941,268.242,91.839,-0.0051707,-0.00061851,0.0,0 STARLINK-5933,1 55961U 23037AZ  23288.72071999 -.00061851  00000-0 -51707-2 0  9993,2 55961  69.9983 312.9941 0003042 268.2420  91.8390 14.98708621 33264,6949.022,96.083,573.001,568.773,0.0
55961.0,STARLINK-5933,PAYLOAD,2023-10-16 07:42:52,14.98653551,0.0002862,69.9981,311.479,265.278,94.8053,-0.0048132,-0.00057534,0.0,0 STARLINK-5933,1 55961U 23037AZ  23289.32144090 -.00057534  00000-0 -48132-2 0  9994,2 55961  69.9981 311.4790 0002862 265.2780  94.8053 14.98653551 33690,6949.193,96.086,573.046,569.069,0.0
55961.0,STARLINK-5933,PAYLOAD,2023-10-16 12:31:13,14.98636197,0.0003077,69.9982,310.9738,271.6499,88.4308,-0.0046275,-0.00055311,0.0,0 STARLINK-5933,1 55961U 23037AZ  23289.52168965 -.00055311  00000-0 -46275-2 0  9990,2 55961  69.9982 310.9738 0003077 271.6499  88.4308 14.98636197 33727,6949.246,96.087,573.249,568.973,0.0
55961.0,STARLINK-5933,PAYLOAD,2023-10-17 10:57:10,14.98277321,0.0002836,69.9992,308.6171,272.9555,87.1279,-0.00057031,-6.882e-05,0.0,0 STARLINK-5933,1 55961U 23037AZ  23290.45637565 -.00006882  00000-0 -57031-3 0  9993,2 55961  69.9992 308.6171 0002836 272.9555  87.1279 14.98277321 33860,6950.356,96.11,574.192,570.25,0.0
55961.0,STARLINK-5933,PAYLOAD,2023-10-18 02:58:27,14.983486,0.0002996,69.9983,306.934,274.2521,85.8296,-0.00032241,-3.94e-05,0.0,0 STARLINK-5933,1 55961U 23037AZ  23291.12392625 -.00003940  00000-0 -32241-3 0  9991,2 55961  69.9983 306.9340 0002996 274.2521  85.8296 14.98348600 33621,6950.135,96.106,574.083,569.918,0.0
55961.0,STARLINK-5933,PAYLOAD,2023-10-18 10:59:07,14.98332421,0.0003096,69.9984,306.0925,269.0389,91.0415,2.3704e-05,1.9e-06,0.0,0 STARLINK-5933,1 55961U 23037AZ  23291.45772736  .00000190  00000-0  23704-4 0  9999,2 55961  69.9984 306.0925 0003096 269.0389  91.0415 14.98332421 34018,6950.185,96.107,574.202,569.899,0.0
55961.0,STARLINK-5933,PAYLOAD,2023-10-18 18:59:48,14.98333306,0.0002748,69.9992,305.2504,274.1375,85.947,-3.0173e-05,-4.53e-06,0.0,0 STARLINK-5933,1 55961U 23037AZ  23291.79152854 -.00000453  00000-0 -30173-4 0  9991,2 55961  69.9992 305.2504 0002748 274.1375  85.9470 14.98333306 33729,6950.183,96.107,573.958,570.138,0.0
55961.0,STARLINK-5933,PAYLOAD,2023-10-19 11:01:09,14.98294891,0.000261,70.0,303.5676,264.2883,95.7978,0.00064227,7.572e-05,0.0,0 STARLINK-5933,1 55961U 23037AZ  23292.45913822  .00007572  00000-0  64227-3 0  9998,2 55961  70.0000 303.5676 0002610 264.2883  95.7978 14.98294891 34161,6950.301,96.109,573.98,570.352,0.0
55961.0,STARLINK-5933,PAYLOAD,2023-10-20 04:38:36,14.98336627,0.0002665,69.9996,301.7157,269.8109,90.2744,6.3312e-05,6.63e-06,0.0,0 STARLINK-5933,1 55961U 23037AZ  23293.19348152  .00000663  00000-0  63312-4 0  9997,2 55961  69.9996 301.7157 0002665 269.8109  90.2744 14.98336627 34275,6950.172,96.107,573.89,570.185,0.0
55961.0,STARLINK-5933,PAYLOAD,2023-10-20 09:27:00,14.98339485,0.0002182,70.0001,301.2111,258.3339,101.7575,0.00015642,1.774e-05,0.0,0 STARLINK-5933,1 55961U 23037AZ  23293.39375628  .00001774  00000-0  15642-3 0  9993,2 55961  70.0001 301.2111 0002182 258.3339 101.7575 14.98339485 33962,6950.164,96.106,573.545,570.512,0.0
55961.0,STARLINK-5933,PAYLOAD,2023-10-21 03:04:30,14.98320632,0.00027,69.9987,299.3583,263.3189,96.7663,-0.00014863,-1.865e-05,0.0,0 STARLINK-5933,1 55961U 23037AZ  23294.12813335 -.00001865  00000-0 -14863-3 0  9994,2 55961  69.9987 299.3583 0002700 263.3189  96.7663 14.98320632 34413,6950.222,96.108,573.963,570.21,0.0
55961.0,STARLINK-5933,PAYLOAD,2023-10-21 11:05:11,14.98318143,0.000262,69.9994,298.5173,263.0963,96.9898,-0.000146,-1.834e-05,0.0,0 STARLINK-5933,1 55961U 23037AZ  23294.46193695 -.00001834  00000-0 -14600-3 0  9996,2 55961  69.9994 298.5173 0002620 263.0963  96.9898 14.98318143 34129,6950.23,96.108,573.916,570.274,0.0
55961.0,STARLINK-5933,PAYLOAD,2023-10-21 17:29:43,14.98321645,0.0002421,70.0,297.8457,260.8179,99.2706,-8.305e-05,-1.083e-05,0.0,0 STARLINK-5933,1 55961U 23037AZ  23294.72897556 -.00001083  00000-0 -83050-4 0  9994,2 55961  70.0000 297.8457 0002421 260.8179  99.2706 14.98321645 34169,6950.219,96.108,573.766,570.401,0.0
55961.0,STARLINK-5933,PAYLOAD,2023-10-22 04:42:39,14.9833535,0.0002793,69.9989,296.6662,266.7966,93.2874,-0.00011149,-1.423e-05,0.0,0 STARLINK-5933,1 55961U 23037AZ  23295.19628653 -.00001423  00000-0 -11149-3 0  9993,2 55961  69.9989 296.6662 0002793 266.7966  93.2874 14.98335350 34571,6950.176,96.107,573.983,570.1,0.0
55961.0,STARLINK-5933,PAYLOAD,2023-10-22 09:31:03,14.98333532,0.0002713,69.999,296.1603,265.7244,94.3605,-9.1703e-05,-1.187e-05,0.0,0 STARLINK-5933,1 55961U 23037AZ  23295.39656707 -.00001187  00000-0 -91703-4 0  9998,2 55961  69.9990 296.1603 0002713 265.7244  94.3605 14.98333532 34263,6950.182,96.107,573.933,570.161,0.0
55961.0,STARLINK-5933,PAYLOAD,2023-10-22 17:31:44,14.98330738,0.0002195,70.0,295.3184,272.3158,87.775,-0.00011134,-1.421e-05,0.0,0 STARLINK-5933,1 55961U 23037AZ  23295.73037061 -.00001421  00000-0 -11134-3 0  9992,2 55961  70.0000 295.3184 0002195 272.3158  87.7750 14.98330738 34313,6950.191,96.107,573.581,570.53,0.0
